ATLAS CENTAUR 2         
1 00694U 63047A   25311.86038905  .00005556  00000+0  67591-3 0  9991
2 00694  30.3503 156.2358 0550127  87.0062 279.3322 14.11414535114393
THOR AGENA D R/B        
1 00733U 64002A   25311.97331352  .00000348  00000+0  14183-3 0  9994
2 00733  99.1221 313.7106 0031952 252.4301 107.3391 14.33928782220855
SL-3 R/B                
1 00877U 64053B   25312.14721985  .00000529  00000+0  12769-3 0  9993
2 00877  65.0773 327.5299 0070614 332.0883  27.6435 14.61218131249037
SL-8 R/B                
1 02802U 67045B   25312.18889411  .00000528  00000+0  15377-3 0  9997
2 02802  74.0112 214.9748 0065578 251.8844 107.5164 14.45496167 71466
SL-8 R/B                
1 03230U 68040B   25312.14656037  .00004814  00000+0  36635-3 0  9993
2 03230  74.0314 201.8425 0023569  53.6803 306.6556 15.02181719 71757
OAO 2                   
1 03597U 68110A   25312.08520750  .00000411  00000+0  11619-3 0  9996
2 03597  34.9930 224.1220 0006125 297.9519  62.0551 14.47210757  1472
ISIS 1                  
1 03669U 69009A   25311.56932712  .00000247  00000+0  17530-3 0  9996
2 03669  88.4525 168.6410 1707693 335.7651  17.1418 11.30334235334734
SERT 2                  
1 04327U 70009A   25311.82233031  .00000014  00000+0  75403-4 0  9993
2 04327  99.2588 256.6806 0005562 111.3136 276.3344 13.58710977763346
SL-3 R/B                
1 05118U 71028B   25312.14487332  .00035893  00000+0  58848-3 0  9991
2 05118  81.2404 201.0523 0022261   6.8085 353.3461 15.51993741969766
ASTEX 1                 
1 05560U 71089A   25312.00747895  .00000872  00000+0  22242-3 0  9995
2 05560  92.7119 112.3875 0017321 130.4574 229.8146 14.50574276844663
SL-8 R/B                
1 05730U 71119B   25311.97682502  .00008942  00000+0  47510-3 0  9997
2 05730  73.8897  42.7205 0561278  34.0766 329.5116 14.34877608638017
OAO 3 (COPERNICUS)      
1 06153U 72065A   25312.19908008  .00000650  00000+0  13813-3 0  9992
2 06153  35.0057 269.4245 0007290 248.1284 128.9587 14.59859410828437
