CCSDS_OMM_VERS = 2.0
CREATION_DATE  = 
ORIGINATOR     = 

OBJECT_NAME    = ATLAS CENTAUR 2
OBJECT_ID      = 1963-047A
CENTER_NAME    = EARTH
REF_FRAME      = TEME
TIME_SYSTEM    = UTC
MEAN_ELEMENT_THEORY = SGP/SGP4

EPOCH          = 2025-11-07T20:38:57.613920
MEAN_MOTION    = 14.11414535
ECCENTRICITY   = .0550127
INCLINATION    = 30.3503
RA_OF_ASC_NODE = 156.2358
ARG_OF_PERICENTER = 87.0062
MEAN_ANOMALY   = 279.3322

EPHEMERIS_TYPE = 0
CLASSIFICATION_TYPE = U
NORAD_CAT_ID   = 694
ELEMENT_SET_NO = 999
REV_AT_EPOCH   = 11439
BSTAR          = .67591E-3
MEAN_MOTION_DOT = .5556E-4
MEAN_MOTION_DDOT = 0

CCSDS_OMM_VERS = 2.0
CREATION_DATE  = 
ORIGINATOR     = 

OBJECT_NAME    = THOR AGENA D R/B
OBJECT_ID      = 1964-002A
CENTER_NAME    = EARTH
REF_FRAME      = TEME
TIME_SYSTEM    = UTC
MEAN_ELEMENT_THEORY = SGP/SGP4

EPOCH          = 2025-11-07T23:21:34.288128
MEAN_MOTION    = 14.33928782
ECCENTRICITY   = .0031952
INCLINATION    = 99.1221
RA_OF_ASC_NODE = 313.7106
ARG_OF_PERICENTER = 252.4301
MEAN_ANOMALY   = 107.3391

EPHEMERIS_TYPE = 0
CLASSIFICATION_TYPE = U
NORAD_CAT_ID   = 733
ELEMENT_SET_NO = 999
REV_AT_EPOCH   = 22085
BSTAR          = .14183E-3
MEAN_MOTION_DOT = .348E-5
MEAN_MOTION_DDOT = 0

CCSDS_OMM_VERS = 2.0
CREATION_DATE  = 
ORIGINATOR     = 

OBJECT_NAME    = SL-3 R/B
OBJECT_ID      = 1964-053B
CENTER_NAME    = EARTH
REF_FRAME      = TEME
TIME_SYSTEM    = UTC
MEAN_ELEMENT_THEORY = SGP/SGP4

EPOCH          = 2025-11-08T03:31:59.795040
MEAN_MOTION    = 14.61218131
ECCENTRICITY   = .0070614
INCLINATION    = 65.0773
RA_OF_ASC_NODE = 327.5299
ARG_OF_PERICENTER = 332.0883
MEAN_ANOMALY   = 27.6435

EPHEMERIS_TYPE = 0
CLASSIFICATION_TYPE = U
NORAD_CAT_ID   = 877
ELEMENT_SET_NO = 999
REV_AT_EPOCH   = 24903
BSTAR          = .12769E-3
MEAN_MOTION_DOT = .529E-5
MEAN_MOTION_DDOT = 0

CCSDS_OMM_VERS = 2.0
CREATION_DATE  = 
ORIGINATOR     = 

OBJECT_NAME    = SL-8 R/B
OBJECT_ID      = 1967-045B
CENTER_NAME    = EARTH
REF_FRAME      = TEME
TIME_SYSTEM    = UTC
MEAN_ELEMENT_THEORY = SGP/SGP4

EPOCH          = 2025-11-08T04:32:00.451104
MEAN_MOTION    = 14.45496167
ECCENTRICITY   = .0065578
INCLINATION    = 74.0112
RA_OF_ASC_NODE = 214.9748
ARG_OF_PERICENTER = 251.8844
MEAN_ANOMALY   = 107.5164

EPHEMERIS_TYPE = 0
CLASSIFICATION_TYPE = U
NORAD_CAT_ID   = 2802
ELEMENT_SET_NO = 999
REV_AT_EPOCH   = 7146
BSTAR          = .15377E-3
MEAN_MOTION_DOT = .528E-5
MEAN_MOTION_DDOT = 0

CCSDS_OMM_VERS = 2.0
CREATION_DATE  = 
ORIGINATOR     = 

OBJECT_NAME    = SL-8 R/B
OBJECT_ID      = 1968-040B
CENTER_NAME    = EARTH
REF_FRAME      = TEME
TIME_SYSTEM    = UTC
MEAN_ELEMENT_THEORY = SGP/SGP4

EPOCH          = 2025-11-08T03:31:02.815968
MEAN_MOTION    = 15.02181719
ECCENTRICITY   = .0023569
INCLINATION    = 74.0314
RA_OF_ASC_NODE = 201.8425
ARG_OF_PERICENTER = 53.6803
MEAN_ANOMALY   = 306.6556

EPHEMERIS_TYPE = 0
CLASSIFICATION_TYPE = U
NORAD_CAT_ID   = 3230
ELEMENT_SET_NO = 999
REV_AT_EPOCH   = 7175
BSTAR          = .36635E-3
MEAN_MOTION_DOT = .4814E-4
MEAN_MOTION_DDOT = 0

CCSDS_OMM_VERS = 2.0
CREATION_DATE  = 
ORIGINATOR     = 

OBJECT_NAME    = OAO 2
OBJECT_ID      = 1968-110A
CENTER_NAME    = EARTH
REF_FRAME      = TEME
TIME_SYSTEM    = UTC
MEAN_ELEMENT_THEORY = SGP/SGP4

EPOCH          = 2025-11-08T02:02:41.928000
MEAN_MOTION    = 14.47210757
ECCENTRICITY   = .0006125
INCLINATION    = 34.9930
RA_OF_ASC_NODE = 224.1220
ARG_OF_PERICENTER = 297.9519
MEAN_ANOMALY   = 62.0551

EPHEMERIS_TYPE = 0
CLASSIFICATION_TYPE = U
NORAD_CAT_ID   = 3597
ELEMENT_SET_NO = 999
REV_AT_EPOCH   = 147
BSTAR          = .11619E-3
MEAN_MOTION_DOT = .411E-5
MEAN_MOTION_DDOT = 0

CCSDS_OMM_VERS = 2.0
CREATION_DATE  = 
ORIGINATOR     = 

OBJECT_NAME    = ISIS 1
OBJECT_ID      = 1969-009A
CENTER_NAME    = EARTH
REF_FRAME      = TEME
TIME_SYSTEM    = UTC
MEAN_ELEMENT_THEORY = SGP/SGP4

EPOCH          = 2025-11-07T13:39:49.863168
MEAN_MOTION    = 11.30334235
ECCENTRICITY   = .1707693
INCLINATION    = 88.4525
RA_OF_ASC_NODE = 168.6410
ARG_OF_PERICENTER = 335.7651
MEAN_ANOMALY   = 17.1418

EPHEMERIS_TYPE = 0
CLASSIFICATION_TYPE = U
NORAD_CAT_ID   = 3669
ELEMENT_SET_NO = 999
REV_AT_EPOCH   = 33473
BSTAR          = .1753E-3
MEAN_MOTION_DOT = .247E-5
MEAN_MOTION_DDOT = 0

CCSDS_OMM_VERS = 2.0
CREATION_DATE  = 
ORIGINATOR     = 

OBJECT_NAME    = SERT 2
OBJECT_ID      = 1970-009A
CENTER_NAME    = EARTH
REF_FRAME      = TEME
TIME_SYSTEM    = UTC
MEAN_ELEMENT_THEORY = SGP/SGP4

EPOCH          = 2025-11-07T19:44:09.338784
MEAN_MOTION    = 13.58710977
ECCENTRICITY   = .0005562
INCLINATION    = 99.2588
RA_OF_ASC_NODE = 256.6806
ARG_OF_PERICENTER = 111.3136
MEAN_ANOMALY   = 276.3344

EPHEMERIS_TYPE = 0
CLASSIFICATION_TYPE = U
NORAD_CAT_ID   = 4327
ELEMENT_SET_NO = 999
REV_AT_EPOCH   = 76334
BSTAR          = .75403E-4
MEAN_MOTION_DOT = .14E-6
MEAN_MOTION_DDOT = 0

CCSDS_OMM_VERS = 2.0
CREATION_DATE  = 
ORIGINATOR     = 

OBJECT_NAME    = SL-3 R/B
OBJECT_ID      = 1971-028B
CENTER_NAME    = EARTH
REF_FRAME      = TEME
TIME_SYSTEM    = UTC
MEAN_ELEMENT_THEORY = SGP/SGP4

EPOCH          = 2025-11-08T03:28:37.054848
MEAN_MOTION    = 15.51993741
ECCENTRICITY   = .0022261
INCLINATION    = 81.2404
RA_OF_ASC_NODE = 201.0523
ARG_OF_PERICENTER = 6.8085
MEAN_ANOMALY   = 353.3461

EPHEMERIS_TYPE = 0
CLASSIFICATION_TYPE = U
NORAD_CAT_ID   = 5118
ELEMENT_SET_NO = 999
REV_AT_EPOCH   = 96976
BSTAR          = .58848E-3
MEAN_MOTION_DOT = .35893E-3
MEAN_MOTION_DDOT = 0

CCSDS_OMM_VERS = 2.0
CREATION_DATE  = 
ORIGINATOR     = 

OBJECT_NAME    = ASTEX 1
OBJECT_ID      = 1971-089A
CENTER_NAME    = EARTH
REF_FRAME      = TEME
TIME_SYSTEM    = UTC
MEAN_ELEMENT_THEORY = SGP/SGP4

EPOCH          = 2025-11-08T00:10:46.181280
MEAN_MOTION    = 14.50574276
ECCENTRICITY   = .0017321
INCLINATION    = 92.7119
RA_OF_ASC_NODE = 112.3875
ARG_OF_PERICENTER = 130.4574
MEAN_ANOMALY   = 229.8146

EPHEMERIS_TYPE = 0
CLASSIFICATION_TYPE = U
NORAD_CAT_ID   = 5560
ELEMENT_SET_NO = 999
REV_AT_EPOCH   = 84466
BSTAR          = .22242E-3
MEAN_MOTION_DOT = .872E-5
MEAN_MOTION_DDOT = 0

CCSDS_OMM_VERS = 2.0
CREATION_DATE  = 
ORIGINATOR     = 

OBJECT_NAME    = SL-8 R/B
OBJECT_ID      = 1971-119B
CENTER_NAME    = EARTH
REF_FRAME      = TEME
TIME_SYSTEM    = UTC
MEAN_ELEMENT_THEORY = SGP/SGP4

EPOCH          = 2025-11-07T23:26:37.681728
MEAN_MOTION    = 14.34877608
ECCENTRICITY   = .0561278
INCLINATION    = 73.8897
RA_OF_ASC_NODE = 42.7205
ARG_OF_PERICENTER = 34.0766
MEAN_ANOMALY   = 329.5116

EPHEMERIS_TYPE = 0
CLASSIFICATION_TYPE = U
NORAD_CAT_ID   = 5730
ELEMENT_SET_NO = 999
REV_AT_EPOCH   = 63801
BSTAR          = .4751E-3
MEAN_MOTION_DOT = .8942E-4
MEAN_MOTION_DDOT = 0

CCSDS_OMM_VERS = 2.0
CREATION_DATE  = 
ORIGINATOR     = 

OBJECT_NAME    = OAO 3 (COPERNICUS)
OBJECT_ID      = 1972-065A
CENTER_NAME    = EARTH
REF_FRAME      = TEME
TIME_SYSTEM    = UTC
MEAN_ELEMENT_THEORY = SGP/SGP4

EPOCH          = 2025-11-08T04:46:40.518912
MEAN_MOTION    = 14.59859410
ECCENTRICITY   = .000729
INCLINATION    = 35.0057
RA_OF_ASC_NODE = 269.4245
ARG_OF_PERICENTER = 248.1284
MEAN_ANOMALY   = 128.9587

EPHEMERIS_TYPE = 0
CLASSIFICATION_TYPE = U
NORAD_CAT_ID   = 6153
ELEMENT_SET_NO = 999
REV_AT_EPOCH   = 82843
BSTAR          = .13813E-3
MEAN_MOTION_DOT = .65E-5
MEAN_MOTION_DDOT = 0

